NORAD_CAT_ID,OBJECT_NAME,OBJECT_TYPE,EPOCH,MEAN_MOTION,ECCENTRICITY,INCLINATION,RA_OF_ASC_NODE,ARG_OF_PERICENTER,MEAN_ANOMALY,BSTAR,MEAN_MOTION_DOT,MEAN_MOTION_DDOT,TLE_LINE0,TLE_LINE1,TLE_LINE2,SEMIMAJOR_AXIS,PERIOD,APOGEE,PERIGEE,DECAYED
49414.0,STARLINK-3146,PAYLOAD,2023-10-23 21:42:23,15.08845378,0.0001559,53.216,164.7607,69.7633,290.3527,6.3885e-05,7.29e-06,0.0,0 STARLINK-3146,1 49414U 21104G   23296.90443644  .00000729  00000-0  63885-4 0  9998,2 49414  53.2160 164.7607 0001559  69.7633 290.3527 15.08845378107629,6917.864,95.437,540.807,538.65,0.0
49414.0,STARLINK-3146,PAYLOAD,2023-10-24 08:50:05,15.08850723,0.0001582,53.216,162.6791,68.7858,291.3303,0.00018933,2.727e-05,0.0,0 STARLINK-3146,1 49414U 21104G   23297.36811448  .00002727  00000-0  18933-3 0  9993,2 49414  53.2160 162.6791 0001582  68.7858 291.3303 15.08850723107694,6917.848,95.437,540.807,538.618,0.0
49414.0,STARLINK-3146,PAYLOAD,2023-10-25 00:43:56,15.08860044,0.0001488,53.2153,159.7043,70.3274,289.7879,0.00053203,8.194e-05,0.0,0 STARLINK-3146,1 49414U 21104G   23298.03051203  .00008194  00000-0  53203-3 0  9996,2 49414  53.2153 159.7043 0001488  70.3274 289.7879 15.08860044108887,6917.819,95.436,540.713,538.655,0.0
49414.0,STARLINK-3146,PAYLOAD,2023-10-26 18:03:57,15.08843913,0.0001429,53.2152,151.9705,75.1161,284.999,6.0803e-05,6.8e-06,0.0,0 STARLINK-3146,1 49414U 21104G   23299.75274959  .00000680  00000-0  60803-4 0  9998,2 49414  53.2152 151.9705 0001429  75.1161 284.9990 15.08843913109145,6917.868,95.437,540.722,538.745,0.0
49414.0,STARLINK-3146,PAYLOAD,2023-10-26 21:14:43,15.08849596,0.000136,53.2153,151.3786,74.4529,285.6613,8.9852e-05,1.143e-05,0.0,0 STARLINK-3146,1 49414U 21104G   23299.88522694  .00001143  00000-0  89852-4 0  9994,2 49414  53.2153 151.3786 0001360  74.4529 285.6613 15.08849596108077,6917.851,95.437,540.657,538.775,0.0
49414.0,STARLINK-3146,PAYLOAD,2023-10-27 00:25:29,15.0885391,0.0001417,53.2152,150.783,73.5104,286.6044,4.4257e-05,4.17e-06,0.0,0 STARLINK-3146,1 49414U 21104G   23300.01770404  .00000417  00000-0  44257-4 0  9999,2 49414  53.2152 150.7830 0001417  73.5104 286.6044 15.08853910109188,6917.838,95.437,540.683,538.723,0.0
49414.0,STARLINK-3146,PAYLOAD,2023-10-27 06:47:02,15.08845989,0.0001422,53.2148,149.5925,70.5041,289.6104,0.00011233,1.501e-05,0.0,0 STARLINK-3146,1 49414U 21104G   23300.28266700  .00001501  00000-0  11233-3 0  9999,2 49414  53.2148 149.5925 0001422  70.5041 289.6104 15.08845989109229,6917.862,95.437,540.711,538.743,0.0
49414.0,STARLINK-3146,PAYLOAD,2023-10-27 14:43:58,15.08839833,0.0001404,53.2151,148.1082,86.5728,273.5424,7.9148e-05,9.72e-06,0.0,0 STARLINK-3146,1 49414U 21104G   23300.61387063  .00000972  00000-0  79148-4 0  9993,2 49414  53.2151 148.1082 0001404  86.5728 273.5424 15.08839833108183,6917.881,95.438,540.717,538.775,0.0
49414.0,STARLINK-3146,PAYLOAD,2023-10-27 21:05:30,15.08845049,0.0001497,53.2149,146.9184,88.4257,271.6906,0.00013687,1.891e-05,0.0,0 STARLINK-3146,1 49414U 21104G   23300.87882788  .00001891  00000-0  13687-3 0  9991,2 49414  53.2149 146.9184 0001497  88.4257 271.6906 15.08845049108224,6917.865,95.437,540.766,538.694,0.0
49414.0,STARLINK-3146,PAYLOAD,2023-10-28 06:37:49,15.08838599,0.0001268,53.2147,145.1356,92.5635,267.5502,-5.4927e-06,-3.75e-06,0.0,0 STARLINK-3146,1 49414U 21104G   23301.27627008 -.00000375  00000-0 -54927-5 0  9990,2 49414  53.2147 145.1356 0001268  92.5635 267.5502 15.08838599109371,6917.885,95.438,540.627,538.872,0.0
49414.0,STARLINK-3146,PAYLOAD,2023-10-28 20:56:18,15.08838073,0.0001424,53.2146,142.4581,91.7455,268.37,-6.25e-06,-3.87e-06,0.0,0 STARLINK-3146,1 49414U 21104G   23301.87243392 -.00000387  00000-0 -62500-5 0  9995,2 49414  53.2146 142.4581 0001424  91.7455 268.3700 15.08838073108370,6917.886,95.438,540.736,538.766,0.0
49414.0,STARLINK-3146,PAYLOAD,2023-10-29 06:28:37,15.08841747,0.0001447,53.2144,140.674,91.1281,268.9876,5.8732e-05,6.47e-06,0.0,0 STARLINK-3146,1 49414U 21104G   23302.26987316  .00000647  00000-0  58732-4 0  9998,2 49414  53.2144 140.6740 0001447  91.1281 268.9876 15.08841747108430,6917.875,95.437,540.741,538.739,0.0
49414.0,STARLINK-3146,PAYLOAD,2023-10-29 19:11:42,15.08845599,0.0001666,53.215,138.2938,97.9835,262.1346,0.00018814,2.708e-05,0.0,0 STARLINK-3146,1 49414U 21104G   23302.79979273  .00002708  00000-0  18814-3 0  9995,2 49414  53.2150 138.2938 0001666  97.9835 262.1346 15.08845599109608,6917.863,95.437,540.881,538.576,0.0
49414.0,STARLINK-3146,PAYLOAD,2023-10-29 22:22:28,15.08846943,0.0001482,53.2146,137.6991,92.1587,267.9575,0.00027379,4.073e-05,0.0,0 STARLINK-3146,1 49414U 21104G   23302.93227268  .00004073  00000-0  27379-3 0  9994,2 49414  53.2146 137.6991 0001482  92.1587 267.9575 15.08846943108534,6917.859,95.437,540.749,538.699,0.0
49414.0,STARLINK-3146,PAYLOAD,2023-10-30 06:19:24,15.08839324,0.0001756,53.2168,136.2104,88.2655,271.8539,0.00021421,3.123e-05,0.0,0 STARLINK-3146,1 49414U 21104G   23303.26347757  .00003123  00000-0  21421-3 0  9994,2 49414  53.2168 136.2104 0001756  88.2655 271.8539 15.08839324109670,6917.882,95.438,540.962,538.533,0.0
49414.0,STARLINK-3146,PAYLOAD,2023-10-30 19:02:29,15.08837071,0.0001453,53.2167,133.8312,91.3219,268.794,0.00012794,1.749e-05,0.0,0 STARLINK-3146,1 49414U 21104G   23303.79339887  .00001749  00000-0  12794-3 0  9992,2 49414  53.2167 133.8312 0001453  91.3219 268.7940 15.08837071108664,6917.889,95.438,540.76,538.749,0.0
49414.0,STARLINK-3146,PAYLOAD,2023-10-31 06:10:11,15.088405,0.0001461,53.2168,131.7499,92.6129,267.5031,0.00013908,1.926e-05,0.0,0 STARLINK-3146,1 49414U 21104G   23304.25707882  .00001926  00000-0  13908-3 0  9993,2 49414  53.2168 131.7499 0001461  92.6129 267.5031 15.08840500108738,6917.879,95.438,540.755,538.733,0.0
49414.0,STARLINK-3146,PAYLOAD,2023-10-31 18:53:16,15.08851569,0.0001321,53.2169,129.371,92.847,267.2673,0.00026923,4.001e-05,0.0,0 STARLINK-3146,1 49414U 21104G   23304.78699321  .00004001  00000-0  26923-3 0  9997,2 49414  53.2169 129.3710 0001321  92.8470 267.2673 15.08851569109900,6917.845,95.437,540.624,538.796,0.0
49414.0,STARLINK-3146,PAYLOAD,2023-10-31 22:04:03,15.08841915,0.0001546,53.2166,128.7763,95.936,264.1808,0.00073191,0.0001138,0.0,0 STARLINK-3146,1 49414U 21104G   23304.91948008  .00011380  00000-0  73191-3 0  9998,2 49414  53.2166 128.7763 0001546  95.9360 264.1808 15.08841915108830,6917.875,95.437,540.809,538.67,0.0
49414.0,STARLINK-3146,PAYLOAD,2023-11-01 06:00:58,15.08847095,0.0001339,53.2155,127.2903,89.0254,271.0892,0.00022996,3.374e-05,0.0,0 STARLINK-3146,1 49414U 21104G   23305.25067467  .00003374  00000-0  22996-3 0  9998,2 49414  53.2155 127.2903 0001339  89.0254 271.0892 15.08847095108884,6917.859,95.437,540.65,538.797,0.0
49414.0,STARLINK-3146,PAYLOAD,2023-11-01 18:44:03,15.08841896,0.0001402,53.2159,124.9109,92.309,267.8063,0.00019041,2.744e-05,0.0,0 STARLINK-3146,1 49414U 21104G   23305.78059654  .00002744  00000-0  19041-3 0  9992,2 49414  53.2159 124.9109 0001402  92.3090 267.8063 15.08841896110054,6917.875,95.437,540.709,538.77,0.0
49414.0,STARLINK-3146,PAYLOAD,2023-11-01 21:54:49,15.08845306,0.0001378,53.2158,124.3164,91.5409,268.5741,0.00015249,2.14e-05,0.0,0 STARLINK-3146,1 49414U 21104G   23305.91307409  .00002140  00000-0  15249-3 0  9997,2 49414  53.2158 124.3164 0001378  91.5409 268.5741 15.08845306108985,6917.864,95.437,540.682,538.776,0.0
49414.0,STARLINK-3146,PAYLOAD,2023-11-02 21:45:36,15.08839275,0.0001379,53.2154,119.8561,90.6698,269.4452,-3.9615e-05,-9.18e-06,0.0,0 STARLINK-3146,1 49414U 21104G   23306.90667649 -.00000918  00000-0 -39615-4 0  9999,2 49414  53.2154 119.8561 0001379  90.6698 269.4452 15.08839275109137,6917.883,95.438,540.702,538.794,0.0
49414.0,STARLINK-3146,PAYLOAD,2023-11-03 04:07:09,15.08841217,0.0001464,53.2172,118.6661,93.0106,267.1053,-2.5337e-05,-6.91e-06,0.0,0 STARLINK-3146,1 49414U 21104G   23307.17163820 -.00000691  00000-0 -25337-4 0  9995,2 49414  53.2172 118.6661 0001464  93.0106 267.1053 15.08841217110268,6917.877,95.437,540.754,538.729,0.0
49414.0,STARLINK-3146,PAYLOAD,2023-11-03 13:39:28,15.08837193,0.000132,53.217,116.8832,93.0273,267.087,7.1893e-05,8.56e-06,0.0,0 STARLINK-3146,1 49414U 21104G   23307.56907970  .00000856  00000-0  71893-4 0  9999,2 49414  53.2170 116.8832 0001320  93.0273 267.0870 15.08837193109231,6917.889,95.438,540.667,538.841,0.0
49414.0,STARLINK-3146,PAYLOAD,2023-11-03 21:36:23,15.08842111,0.0001342,53.2162,115.3968,86.4622,273.6524,0.00013357,1.839e-05,0.0,0 STARLINK-3146,1 49414U 21104G   23307.90027658  .00001839  00000-0  13357-3 0  9995,2 49414  53.2162 115.3968 0001342  86.4622 273.6524 15.08842111109284,6917.874,95.437,540.667,538.811,0.0
49414.0,STARLINK-3146,PAYLOAD,2023-11-04 03:57:56,15.08835414,0.0001356,53.2163,114.2066,87.5782,272.5365,-1.1516e-05,-4.71e-06,0.0,0 STARLINK-3146,1 49414U 21104G   23308.16523975 -.00000471  00000-0 -11516-4 0  9996,2 49414  53.2163 114.2066 0001356  87.5782 272.5365 15.08835414109320,6917.894,95.438,540.697,538.821,0.0
49414.0,STARLINK-3146,PAYLOAD,2023-11-04 18:16:25,15.08838389,0.0001347,53.2163,111.5313,90.8479,269.2667,8.1184e-05,1.004e-05,0.0,0 STARLINK-3146,1 49414U 21104G   23308.76140092  .00001004  00000-0  81184-4 0  9996,2 49414  53.2163 111.5313 0001347  90.8479 269.2667 15.08838389110509,6917.885,95.438,540.682,538.818,0.0
49414.0,STARLINK-3146,PAYLOAD,2023-11-05 14:56:25,15.08847282,0.0001369,53.2163,107.6655,86.4606,273.6543,0.00022938,3.365e-05,0.0,0 STARLINK-3146,1 49414U 21104G   23309.62251767  .00003365  00000-0  22938-3 0  9997,2 49414  53.2163 107.6655 0001369  86.4606 273.6543 15.08847282109547,6917.858,95.437,540.67,538.776,0.0
49414.0,STARLINK-3146,PAYLOAD,2023-11-05 18:07:11,15.08853746,0.0001462,53.2161,107.071,85.6281,274.4878,0.00037989,5.765e-05,0.0,0 STARLINK-3146,1 49414U 21104G   23309.75499525  .00005765  00000-0  37989-3 0  9995,2 49414  53.2161 107.0710 0001462  85.6281 274.4878 15.08853746110651,6917.838,95.437,540.715,538.692,0.0
